{
    "links": {
        "self": "http://www.neowsapp.com/rest/v1/neo/3671118?api_key=iIulBulltgU6a56xZRHN4H3l9WmuAYTsLGpBGhQ2"
    },
    "id": "3671118",
    "neo_reference_id": "3671118",
    "name": "(2014 JT54)",
    "designation": "2014 JT54",
    "nasa_jpl_url": "http://ssd.jpl.nasa.gov/sbdb.cgi?sstr=3671118",
    "absolute_magnitude_h": 24.1,
    "estimated_diameter": {
        "kilometers": {
            "estimated_diameter_min": 0.040230458,
            "estimated_diameter_max": 0.0899580388
        },
        "meters": {
            "estimated_diameter_min": 40.2304579834,
            "estimated_diameter_max": 89.9580388169
        },
        "miles": {
            "estimated_diameter_min": 0.0249980399,
            "estimated_diameter_max": 0.0558973165
        },
        "feet": {
            "estimated_diameter_min": 131.9896957704,
            "estimated_diameter_max": 295.1379320721
        }
    },
    "is_potentially_hazardous_asteroid": false,
    "close_approach_data": [
        {
            "close_approach_date": "2014-05-18",
            "close_approach_date_full": "2014-May-18 23:30",
            "epoch_date_close_approach": 1400455800000,
            "relative_velocity": {
                "kilometers_per_second": "20.6920019682",
                "kilometers_per_hour": "74491.2070855006",
                "miles_per_hour": "46285.9392026545"
            },
            "miss_distance": {
                "astronomical": "0.0338489112",
                "lunar": "13.1672264568",
                "kilometers": "5063725.017339144",
                "miles": "3146452.8228184272"
            },
            "orbiting_body": "Earth"
        }
    ],
    "orbital_data": {
        "orbit_id": "8",
        "orbit_determination_date": "2017-04-06 08:40:33",
        "first_observation_date": "2014-05-08",
        "last_observation_date": "2014-05-17",
        "data_arc_in_days": 9,
        "observations_used": 22,
        "orbit_uncertainty": "8",
        "minimum_orbit_intersection": ".0320546",
        "jupiter_tisserand_invariant": "3.106",
        "epoch_osculation": "2456786.5",
        "eccentricity": ".7234096534856034",
        "semi_major_axis": "2.39726026575272",
        "inclination": "3.999286478552899",
        "ascending_node_longitude": "85.2967440058982",
        "orbital_period": "1355.723760172069",
        "perihelion_distance": ".6630590475897394",
        "perihelion_argument": "232.451463838609",
        "aphelion_distance": "4.131461483915701",
        "perihelion_time": "2456841.602330478070",
        "mean_anomaly": "345.3680819390615",
        "mean_motion": ".2655408207600556",
        "equinox": "J2000",
        "orbit_class": {
            "orbit_class_type": "APO",
            "orbit_class_description": "Near-Earth asteroid orbits which cross the Earth’s orbit similar to that of 1862 Apollo",
            "orbit_class_range": "a (semi-major axis) > 1.0 AU; q (perihelion) < 1.017 AU"
        }
    },
    "is_sentry_object": false
}